{
    "links": {
        "self": "http://www.neowsapp.com/rest/v1/neo/54068394?api_key=iIulBulltgU6a56xZRHN4H3l9WmuAYTsLGpBGhQ2"
    },
    "id": "54068394",
    "neo_reference_id": "54068394",
    "name": "(2020 TV6)",
    "designation": "2020 TV6",
    "nasa_jpl_url": "http://ssd.jpl.nasa.gov/sbdb.cgi?sstr=54068394",
    "absolute_magnitude_h": 23.821,
    "estimated_diameter": {
        "kilometers": {
            "estimated_diameter_min": 0.045746195,
            "estimated_diameter_max": 0.1022916017
        },
        "meters": {
            "estimated_diameter_min": 45.7461949702,
            "estimated_diameter_max": 102.2916016654
        },
        "miles": {
            "estimated_diameter_min": 0.0284253589,
            "estimated_diameter_max": 0.0635610348
        },
        "feet": {
            "estimated_diameter_min": 150.0859463061,
            "estimated_diameter_max": 335.6023784079
        }
    },
    "is_potentially_hazardous_asteroid": false,
    "close_approach_data": [
        {
            "close_approach_date": "2020-10-17",
            "close_approach_date_full": "2020-Oct-17 17:53",
            "epoch_date_close_approach": 1602957180000,
            "relative_velocity": {
                "kilometers_per_second": "14.3698362361",
                "kilometers_per_hour": "51731.4104498131",
                "miles_per_hour": "32143.8866764408"
            },
            "miss_distance": {
                "astronomical": "0.1479806774",
                "lunar": "57.5644835086",
                "kilometers": "22137594.140197138",
                "miles": "13755663.1401429844"
            },
            "orbiting_body": "Earth"
        }
    ],
    "orbital_data": {
        "orbit_id": "4",
        "orbit_determination_date": "2020-10-23 08:20:58",
        "first_observation_date": "2020-10-14",
        "last_observation_date": "2020-10-23",
        "data_arc_in_days": 9,
        "observations_used": 23,
        "orbit_uncertainty": "9",
        "minimum_orbit_intersection": ".147159",
        "jupiter_tisserand_invariant": "4.242",
        "epoch_osculation": "2459137.5",
        "eccentricity": ".2791865680179538",
        "semi_major_axis": "1.577339712062307",
        "inclination": "26.8257551014468",
        "ascending_node_longitude": "23.55016817469644",
        "orbital_period": "723.579548221712",
        "perihelion_distance": "1.136967651253204",
        "perihelion_argument": "14.08995385582971",
        "aphelion_distance": "2.01771177287141",
        "perihelion_time": "2459153.323412207590",
        "mean_anomaly": "352.1274331084508",
        "mean_motion": ".4975264998641067",
        "equinox": "J2000",
        "orbit_class": {
            "orbit_class_type": "AMO",
            "orbit_class_description": "Near-Earth asteroid orbits similar to that of 1221 Amor",
            "orbit_class_range": "1.017 AU < q (perihelion) < 1.3 AU"
        }
    },
    "is_sentry_object": false
}